[{"OBJECT_NAME":"TRANSPORTER-15 OBJECT V","OBJECT_ID":"2025-276V","EPOCH":"2026-03-09T17:08:31.585344","MEAN_MOTION":15.2021049,"ECCENTRICITY":0.00044492,"INCLINATION":97.4286,"RA_OF_ASC_NODE":144.0632,"ARG_OF_PERICENTER":13.5049,"MEAN_ANOMALY":346.6304,"EPHEMERIS_TYPE":0,"CLASSIFICATION_TYPE":"U","NORAD_CAT_ID":66685,"ELEMENT_SET_NO":999,"REV_AT_EPOCH":1532,"BSTAR":0.00072831858,"MEAN_MOTION_DOT":0.0001574,"MEAN_MOTION_DDOT":0},{"OBJECT_NAME":"OBJECT C","OBJECT_ID":"2026-023C","EPOCH":"2026-03-09T17:14:42.726048","MEAN_MOTION":15.23105823,"ECCENTRICITY":0.00205519,"INCLINATION":96.6388,"RA_OF_ASC_NODE":141.6892,"ARG_OF_PERICENTER":122.5463,"MEAN_ANOMALY":237.7764,"EPHEMERIS_TYPE":0,"CLASSIFICATION_TYPE":"U","NORAD_CAT_ID":67676,"ELEMENT_SET_NO":999,"REV_AT_EPOCH":502,"BSTAR":0.00045389382,"MEAN_MOTION_DOT":0.00010715,"MEAN_MOTION_DDOT":0}]
